NORAD_CAT_ID,OBJECT_NAME,OBJECT_TYPE,EPOCH,MEAN_MOTION,ECCENTRICITY,INCLINATION,RA_OF_ASC_NODE,ARG_OF_PERICENTER,MEAN_ANOMALY,BSTAR,MEAN_MOTION_DOT,MEAN_MOTION_DDOT,TLE_LINE0,TLE_LINE1,TLE_LINE2,SEMIMAJOR_AXIS,PERIOD,APOGEE,PERIGEE,DECAYED
53888.0,STARLINK-5034,PAYLOAD,2023-05-26 11:00:56,15.08845886,0.0001237,53.2154,215.3298,72.0441,288.0686,5.3906e-05,5.7e-06,0.0,0 STARLINK-5034,1 53888U 22119C   23146.45898818  .00000570  00000-0  53906-4 0  9993,2 53888  53.2154 215.3298 0001237  72.0441 288.0686 15.08845886 37961,6917.862,95.437,540.583,538.872,0.0
53888.0,STARLINK-5034,PAYLOAD,2023-05-27 10:51:43,15.08840312,0.0001035,53.2152,210.8673,83.4071,276.7039,6.0043e-05,6.68e-06,0.0,0 STARLINK-5034,1 53888U 22119C   23147.45258939  .00000668  00000-0  60043-4 0  9996,2 53888  53.2152 210.8673 0001035  83.4071 276.7039 15.08840312 37692,6917.879,95.438,540.46,539.028,0.0
53888.0,STARLINK-5034,PAYLOAD,2023-05-27 23:34:48,15.08840157,0.0001043,53.2149,208.4883,82.957,277.154,4.5129e-05,4.31e-06,0.0,0 STARLINK-5034,1 53888U 22119C   23147.98250958  .00000431  00000-0  45129-4 0  9993,2 53888  53.2149 208.4883 0001043  82.9570 277.1540 15.08840157 38196,6917.88,95.438,540.466,539.023,0.0
53888.0,STARLINK-5034,PAYLOAD,2023-05-28 13:53:16,15.08841785,0.0001042,53.2144,205.8108,83.1865,276.9245,4.8247e-05,4.8e-06,0.0,0 STARLINK-5034,1 53888U 22119C   23148.57866792  .00000480  00000-0  48247-4 0  9996,2 53888  53.2144 205.8108 0001042  83.1865 276.9245 15.08841785 37861,6917.875,95.437,540.461,539.019,0.0
53888.0,STARLINK-5034,PAYLOAD,2023-05-28 20:14:49,15.08842187,0.0001045,53.2145,204.6216,82.1145,277.9966,4.702e-05,4.61e-06,0.0,0 STARLINK-5034,1 53888U 22119C   23148.84362742  .00000461  00000-0  47020-4 0  9999,2 53888  53.2145 204.6216 0001045  82.1145 277.9966 15.08842187 38322,6917.874,95.437,540.462,539.016,0.0
53888.0,STARLINK-5034,PAYLOAD,2023-05-29 10:33:17,15.08842616,0.0001058,53.2146,201.9457,81.3181,278.7931,7.3992e-05,8.9e-06,0.0,0 STARLINK-5034,1 53888U 22119C   23149.43978584  .00000890  00000-0  73992-4 0  9995,2 53888  53.2146 201.9457 0001058  81.3181 278.7931 15.08842616 38413,6917.872,95.437,540.469,539.005,0.0
53888.0,STARLINK-5034,PAYLOAD,2023-05-29 20:05:36,15.08837239,0.0001077,53.2144,200.1614,80.4955,279.6159,2.5053e-05,1.11e-06,0.0,0 STARLINK-5034,1 53888U 22119C   23149.83723059  .00000111  00000-0  25053-4 0  9995,2 53888  53.2144 200.1614 0001077  80.4955 279.6159 15.08837239 38470,6917.889,95.438,540.499,539.009,0.0
53888.0,STARLINK-5034,PAYLOAD,2023-05-30 02:27:09,15.08832274,0.0001096,53.2144,198.9723,87.554,272.5577,6.523e-06,-1.84e-06,0.0,0 STARLINK-5034,1 53888U 22119C   23150.10219470 -.00000184  00000-0  65230-5 0  9997,2 53888  53.2144 198.9723 0001096  87.5540 272.5577 15.08832274 38092,6917.904,95.438,540.527,539.011,0.0
53888.0,STARLINK-5034,PAYLOAD,2023-05-30 08:48:42,15.08830742,0.0001066,53.2146,197.7827,90.3987,269.7127,-9.8321e-06,-4.44e-06,0.0,0 STARLINK-5034,1 53888U 22119C   23150.36715706 -.00000444  00000-0 -98321-5 0  9995,2 53888  53.2146 197.7827 0001066  90.3987 269.7127 15.08830742 38558,6917.909,95.438,540.511,539.036,0.0
53888.0,STARLINK-5034,PAYLOAD,2023-05-31 10:14:52,15.08841114,0.0001052,53.2148,193.0255,93.171,266.9403,4.8618e-05,4.86e-06,0.0,0 STARLINK-5034,1 53888U 22119C   23151.42699093  .00000486  00000-0  48618-4 0  9990,2 53888  53.2148 193.0255 0001052  93.1710 266.9403 15.08841114 38296,6917.877,95.437,540.47,539.014,0.0
53888.0,STARLINK-5034,PAYLOAD,2023-05-31 11:50:15,15.08842736,0.0001049,53.2149,192.728,95.6854,264.4258,4.4428e-05,4.19e-06,0.0,0 STARLINK-5034,1 53888U 22119C   23151.49322986  .00000419  00000-0  44428-4 0  9992,2 53888  53.2149 192.7280 0001049  95.6854 264.4258 15.08842736 38723,6917.872,95.437,540.463,539.011,0.0
53888.0,STARLINK-5034,PAYLOAD,2023-05-31 19:47:11,15.08837933,0.0001054,53.2149,191.2415,86.5378,273.5735,4.9418e-05,4.99e-06,0.0,0 STARLINK-5034,1 53888U 22119C   23151.82443312  .00000499  00000-0  49418-4 0  9998,2 53888  53.2149 191.2415 0001054  86.5378 273.5735 15.08837933 38772,6917.887,95.438,540.481,539.023,0.0
53888.0,STARLINK-5034,PAYLOAD,2023-06-01 10:05:39,15.08837338,0.0001039,53.2147,188.5644,85.4205,274.6906,0.00010373,1.363e-05,0.0,0 STARLINK-5034,1 53888U 22119C   23152.42059352  .00001363  00000-0  10373-3 0  9990,2 53888  53.2147 188.5644 0001039  85.4205 274.6906 15.08837338 38864,6917.889,95.438,540.472,539.035,0.0
53888.0,STARLINK-5034,PAYLOAD,2023-06-01 19:37:58,15.08838615,0.0001119,53.2149,186.7807,84.239,275.8729,6.6996e-05,7.79e-06,0.0,0 STARLINK-5034,1 53888U 22119C   23152.81803470  .00000779  00000-0  66996-4 0  9994,2 53888  53.2149 186.7807 0001119  84.2390 275.8729 15.08838615 38504,6917.885,95.438,540.524,538.976,0.0
53888.0,STARLINK-5034,PAYLOAD,2023-06-02 08:21:03,15.08839926,0.0001124,53.2148,184.4016,84.3381,275.774,3.2567e-05,2.31e-06,0.0,0 STARLINK-5034,1 53888U 22119C   23153.34795487  .00000231  00000-0  32567-4 0  9991,2 53888  53.2148 184.4016 0001124  84.3381 275.7740 15.08839926 39001,6917.881,95.438,540.523,538.968,0.0
53888.0,STARLINK-5034,PAYLOAD,2023-06-02 19:28:45,15.08840686,0.0001187,53.2155,182.3201,83.3169,276.7958,3.5567e-05,2.78e-06,0.0,0 STARLINK-5034,1 53888U 22119C   23153.81163464  .00000278  00000-0  35567-4 0  9991,2 53888  53.2155 182.3201 0001187  83.3169 276.7958 15.08840686 39078,6917.878,95.438,540.564,538.922,0.0
53888.0,STARLINK-5034,PAYLOAD,2023-06-03 01:50:17,15.08839947,0.0001194,53.2153,181.1306,83.132,276.9807,4.8575e-05,4.85e-06,0.0,0 STARLINK-5034,1 53888U 22119C   23154.07659469  .00000485  00000-0  48575-4 0  9998,2 53888  53.2153 181.1306 0001194  83.1320 276.9807 15.08839947 38694,6917.881,95.438,540.572,538.92,0.0
53888.0,STARLINK-5034,PAYLOAD,2023-06-03 08:11:50,15.08839951,0.0001124,53.215,179.9405,86.4621,273.65,2.468e-05,1.05e-06,0.0,0 STARLINK-5034,1 53888U 22119C   23154.34155535  .00000105  00000-0  24680-4 0  9993,2 53888  53.2150 179.9405 0001124  86.4621 273.6500 15.08839951 39150,6917.881,95.438,540.523,538.968,0.0
53888.0,STARLINK-5034,PAYLOAD,2023-06-04 08:02:37,15.08840005,0.0001046,53.2147,175.4795,90.8816,269.2296,4.576e-05,4.41e-06,0.0,0 STARLINK-5034,1 53888U 22119C   23155.33515407  .00000441  00000-0  45760-4 0  9996,2 53888  53.2147 175.4795 0001046  90.8816 269.2296 15.08840005 38881,6917.88,95.438,540.469,539.022,0.0
53888.0,STARLINK-5034,PAYLOAD,2023-06-04 11:13:23,15.08839911,0.0001048,53.2147,174.8849,90.2077,269.9035,4.3162e-05,3.99e-06,0.0,0 STARLINK-5034,1 53888U 22119C   23155.46763402  .00000399  00000-0  43162-4 0  9996,2 53888  53.2147 174.8849 0001048  90.2077 269.9035 15.08839911 39321,6917.881,95.438,540.471,539.021,0.0
53888.0,STARLINK-5034,PAYLOAD,2023-06-05 11:04:10,15.08837693,0.0001034,53.2147,170.4242,88.1297,271.9814,3.078e-05,2.02e-06,0.0,0 STARLINK-5034,1 53888U 22119C   23156.46123647  .00000202  00000-0  30780-4 0  9993,2 53888  53.2147 170.4242 0001034  88.1297 271.9814 15.08837693 39474,6917.887,95.438,540.468,539.037,0.0
53888.0,STARLINK-5034,PAYLOAD,2023-06-05 17:25:43,15.08836586,0.0001035,53.2147,169.2346,86.0019,274.1092,1.6908e-05,-1.9e-07,0.0,0 STARLINK-5034,1 53888U 22119C   23156.72619797 -.00000019  00000-0  16908-4 0  9991,2 53888  53.2147 169.2346 0001035  86.0019 274.1092 15.08836586 39513,6917.891,95.438,540.472,539.04,0.0
53888.0,STARLINK-5034,PAYLOAD,2023-06-06 07:44:11,15.0883551,0.0001048,53.2149,166.5584,86.2785,273.8327,1.4343e-05,-6e-07,0.0,0 STARLINK-5034,1 53888U 22119C   23157.32236007 -.00000060  00000-0  14343-4 0  9994,2 53888  53.2149 166.5584 0001048  86.2785 273.8327 15.08835510 39608,6917.894,95.438,540.484,539.034,0.0
53888.0,STARLINK-5034,PAYLOAD,2023-06-06 17:16:30,15.08836586,0.0001049,53.2151,164.7742,87.1608,272.9504,2.2979e-05,7.8e-07,0.0,0 STARLINK-5034,1 53888U 22119C   23157.71980006  .00000078  00000-0  22979-4 0  9994,2 53888  53.2151 164.7742 0001049  87.1608 272.9504 15.08836586 39243,6917.891,95.438,540.482,539.03,0.0
53888.0,STARLINK-5034,PAYLOAD,2023-06-07 05:59:35,15.08837291,0.0001048,53.2151,162.3953,86.8173,273.2939,3.6961e-05,3e-06,0.0,0 STARLINK-5034,1 53888U 22119C   23158.24972028  .00000300  00000-0  36961-4 0  9992,2 53888  53.2151 162.3953 0001048  86.8173 273.2939 15.08837291 39748,6917.889,95.438,540.479,539.029,0.0
53888.0,STARLINK-5034,PAYLOAD,2023-06-07 20:18:04,15.08835699,0.0001042,53.2152,159.7194,87.7089,272.4022,5.5383e-05,5.94e-06,0.0,0 STARLINK-5034,1 53888U 22119C   23158.84588195  .00000594  00000-0  55383-4 0  9990,2 53888  53.2152 159.7194 0001042  87.7089 272.4022 15.08835699 39830,6917.894,95.438,540.479,539.038,0.0
53888.0,STARLINK-5034,PAYLOAD,2023-06-07 23:28:50,15.08836063,0.0001042,53.2151,159.1247,87.9365,272.1746,5.697e-05,6.19e-06,0.0,0 STARLINK-5034,1 53888U 22119C   23158.97836200  .00000619  00000-0  56970-4 0  9998,2 53888  53.2151 159.1247 0001042  87.9365 272.1746 15.08836063 39433,6917.892,95.438,540.478,539.037,0.0
53888.0,STARLINK-5034,PAYLOAD,2023-06-08 09:01:09,15.08838159,0.0001055,53.2151,157.3404,89.1297,270.9816,5.9151e-05,6.54e-06,0.0,0 STARLINK-5034,1 53888U 22119C   23159.37580147  .00000654  00000-0  59151-4 0  9992,2 53888  53.2151 157.3404 0001055  89.1297 270.9816 15.08838159 39915,6917.886,95.438,540.481,539.021,0.0
53888.0,STARLINK-5034,PAYLOAD,2023-06-09 05:41:09,15.08841307,0.0001054,53.2149,153.4745,89.4282,270.6831,5.8548e-05,6.44e-06,0.0,0 STARLINK-5034,1 53888U 22119C   23160.23692001  .00000644  00000-0  58548-4 0  9990,2 53888  53.2149 153.4745 0001054  89.4282 270.6831 15.08841307 39624,6917.876,95.437,540.471,539.012,0.0
53888.0,STARLINK-5034,PAYLOAD,2023-06-09 16:48:51,15.08839586,0.0001068,53.215,151.3927,88.4881,271.6233,4.2024e-05,3.81e-06,0.0,0 STARLINK-5034,1 53888U 22119C   23160.70060127  .00000381  00000-0  42024-4 0  9990,2 53888  53.2150 151.3927 0001068  88.4881 271.6233 15.08839586 40113,6917.882,95.438,540.485,539.008,0.0
